OBJECT_NAME,OBJECT_ID,EPOCH,MEAN_MOTION,ECCENTRICITY,INCLINATION,RA_OF_ASC_NODE,ARG_OF_PERICENTER,MEAN_ANOMALY,EPHEMERIS_TYPE,CLASSIFICATION_TYPE,NORAD_CAT_ID,ELEMENT_SET_NO,REV_AT_EPOCH,BSTAR,MEAN_MOTION_DOT,MEAN_MOTION_DDOT
STARLINK-36926,2026-039P,2026-03-21T12:00:00.999648,15.50589119,.00014421,42.9997,343.5767,249.2686,129.0342,0,U,67999,999,477,-.15501757E-2,-.90274E-3,0
STARLINK-36931,2026-039Q,2026-03-21T12:00:00.999648,15.52999741,.00017578,42.9997,343.3034,265.1468,224.4730,0,U,68000,999,477,-.2966812E-1,-.1697935E-1,0
STARLINK-36903,2026-039R,2026-03-21T12:00:00.999648,15.50771066,.00021348,43.0000,343.5640,251.8583,131.8458,0,U,68001,999,477,-.64444589E-2,-.3639E-2,0
STARLINK-36898,2026-039S,2026-03-21T12:00:00.999648,15.51910660,.000159,42.9997,343.3403,266.2386,207.8087,0,U,68002,999,477,-.31132257E-1,-.1710767E-1,0
STARLINK-36862,2026-039T,2026-03-21T12:00:00.999648,15.50513265,.00016077,43.0000,343.4585,239.7361,186.0606,0,U,68003,999,477,.11819011E-2,.6945E-3,0
STARLINK-36888,2026-039U,2026-03-21T12:00:00.999648,15.50592919,.00012271,42.9997,343.5135,246.6614,157.4091,0,U,68004,999,477,-.11852398E-2,-.69294E-3,0
STARLINK-36910,2026-039V,2026-03-21T12:00:00.999648,15.53055585,.00016801,42.9995,343.2565,269.6861,238.5255,0,U,68005,999,477,-.28963236E-1,-.166475E-1,0
STARLINK-36889,2026-039W,2026-03-21T12:00:00.999648,15.50663530,.00011852,43.0000,343.5791,252.2294,124.8731,0,U,68006,999,477,-.30271331E-2,-.174549E-2,0
STARLINK-36592,2026-039X,2026-03-21T12:00:00.999648,15.52231465,.00015038,42.9998,343.2785,265.5844,233.1002,0,U,68007,999,477,-.33473523E-1,-.1843654E-1,0
STARLINK-36911,2026-039Y,2026-03-21T12:00:00.999648,15.50508660,.00013961,42.9996,343.3653,274.2929,189.2461,0,U,68008,999,477,.10405532E-2,.61026E-3,0
STARLINK-36956,2026-039Z,2026-03-21T12:00:00.999648,15.50586712,.0001975,42.9999,343.4306,256.4746,180.1667,0,U,68009,999,477,-.13959378E-2,-.81415E-3,0
STARLINK-36953,2026-039AA,2026-03-21T12:00:00.999648,15.57029775,.00015894,42.9998,342.9554,249.8718,18.5196,0,U,68010,999,477,-.29297449E-1,-.1918022E-1,0
STARLINK-36991,2026-039AB,2026-03-21T12:00:00.999648,15.50699719,.00021812,43.0000,344.1080,271.1844,251.1709,0,U,68011,999,477,-.43537224E-2,-.248903E-2,0
STARLINK-36936,2026-039AC,2026-03-21T12:00:00.999648,15.50614656,.00016696,43.0000,343.3911,264.8075,187.2571,0,U,68012,999,477,-.20757985E-2,-.12042E-2,0
STARLINK-36967,2026-039AD,2026-03-21T12:00:00.999648,15.50667651,.0001622,43.0002,344.0346,260.1171,292.1237,0,U,68013,999,477,-.34793096E-2,-.199967E-2,0
STARLINK-36985,2026-039AE,2026-03-21T12:00:00.999648,15.57519020,.0001703,42.9996,342.9078,253.3773,33.9900,0,U,68014,999,477,-.28804363E-1,-.1920735E-1,0
STARLINK-36335,2026-040A,2026-03-21T12:00:00.999648,15.75087292,.00017892,97.2840,29.5232,121.5316,258.1686,0,U,68015,999,427,.74547124E-3,.112036E-2,0
STARLINK-36923,2026-040B,2026-03-21T12:00:00.999648,15.75258304,.00015956,97.2854,29.5273,104.6416,281.0631,0,U,68016,999,432,-.11646463E-2,-.17093E-2,0
STARLINK-36568,2026-040C,2026-03-21T12:00:00.999648,15.75257680,.00013073,97.2853,29.5283,89.5868,300.1221,0,U,68017,999,432,-.15321421E-2,-.223444E-2,0
STARLINK-36930,2026-040D,2026-03-21T12:00:00.999648,15.75230330,.00016014,97.2850,29.5252,94.5273,287.1683,0,U,68018,999,432,-.10075165E-2,-.148098E-2,0
STARLINK-36921,2026-040E,2026-03-21T12:00:00.999648,15.75132988,.00015256,97.2842,29.5390,70.6414,333.0607,0,U,68019,999,432,.34410232E-3,.51378E-3,0
STARLINK-36928,2026-040F,2026-03-21T12:00:00.999648,15.75314962,.00010535,97.2842,29.5338,101.9334,295.7667,0,U,68020,999,432,-.23754459E-2,-.342461E-2,0
STARLINK-36858,2026-040G,2026-03-21T13:18:44.154144,15.80826224,.00015317,97.2794,29.7491,111.2783,248.8649,0,U,68021,999,323,.28136025E-3,.54113E-3,0
STARLINK-36916,2026-040H,2026-03-21T12:00:00.999648,15.75216668,.0001123,97.2851,29.5372,93.1002,316.5855,0,U,68022,999,432,-.70415171E-3,-.104008E-2,0
STARLINK-36871,2026-040J,2026-03-21T12:00:00.999648,15.75231340,.00016261,97.2851,29.5378,92.7189,318.9764,0,U,68023,999,432,-.10593006E-2,-.155576E-2,0
STARLINK-36891,2026-040K,2026-03-21T12:00:00.999648,15.75250015,.0001555,97.2850,29.5396,87.7072,328.0052,0,U,68024,999,432,-.14715455E-2,-.214766E-2,0
STARLINK-36378,2026-040L,2026-03-21T12:00:00.999648,15.75249452,.00010921,97.2850,29.5464,70.5163,353.1985,0,U,68025,999,427,-.91579948E-3,-.134936E-2,0
STARLINK-36884,2026-040M,2026-03-21T12:00:00.999648,15.75139275,.00013426,97.2850,29.5436,84.6907,337.0120,0,U,68026,999,432,.44785459E-3,.67049E-3,0
STARLINK-36940,2026-040N,2026-03-21T12:00:00.999648,15.75293781,.00012886,97.2855,29.5724,83.3059,28.4073,0,U,68027,999,442,-.19165283E-2,-.278142E-2,0
STARLINK-36253,2026-040P,2026-03-21T12:00:00.999648,15.62852174,.00019204,97.2857,29.2825,96.2451,72.4969,0,U,68028,999,442,-.24828681E-1,-.1970102E-1,0
