STARLINK-36926          
1 67999U 26039P   26080.50001157 -.00090274  00000+0 -15502-2 0  9993
2 67999  42.9997 343.5767 0001442 249.2686 129.0342 15.50589119  4778
STARLINK-36931          
1 68000U 26039Q   26080.50001157 -.01697935  00000+0 -29668-1 0  9992
2 68000  42.9997 343.3034 0001757 265.1468 224.4730 15.52999741  4770
STARLINK-36903          
1 68001U 26039R   26080.50001157 -.00363900  00000+0 -64445-2 0  9997
2 68001  43.0000 343.5640 0002134 251.8583 131.8458 15.50771066  4777
STARLINK-36898          
1 68002U 26039S   26080.50001157 -.01710767  00000+0 -31132-1 0  9992
2 68002  42.9997 343.3403 0001590 266.2386 207.8087 15.51910660  4770
STARLINK-36862          
1 68003U 26039T   26080.50001157  .00069450  00000+0  11819-2 0  9997
2 68003  43.0000 343.4585 0001607 239.7361 186.0606 15.50513265  4771
STARLINK-36888          
1 68004U 26039U   26080.50001157 -.00069294  00000+0 -11852-2 0  9993
2 68004  42.9997 343.5135 0001227 246.6614 157.4091 15.50592919  4776
STARLINK-36910          
1 68005U 26039V   26080.50001157 -.01664750  00000+0 -28963-1 0  9993
2 68005  42.9995 343.2565 0001680 269.6861 238.5255 15.53055585  4770
STARLINK-36889          
1 68006U 26039W   26080.50001157 -.00174549  00000+0 -30271-2 0  9991
2 68006  43.0000 343.5791 0001185 252.2294 124.8731 15.50663530  4770
STARLINK-36592          
1 68007U 26039X   26080.50001157 -.01843654  00000+0 -33474-1 0  9990
2 68007  42.9998 343.2785 0001503 265.5844 233.1002 15.52231465  4772
STARLINK-36911          
1 68008U 26039Y   26080.50001157  .00061026  00000+0  10406-2 0  9994
2 68008  42.9996 343.3653 0001396 274.2929 189.2461 15.50508660  4779
STARLINK-36956          
1 68009U 26039Z   26080.50001157 -.00081415  00000+0 -13959-2 0  9997
2 68009  42.9999 343.4306 0001975 256.4746 180.1667 15.50586712  4773
STARLINK-36953          
1 68010U 26039AA  26080.50001157 -.01918022  00000+0 -29297-1 0  9994
2 68010  42.9998 342.9554 0001589 249.8718  18.5196 15.57029775  4778
STARLINK-36991          
1 68011U 26039AB  26080.50001157 -.00248903  00000+0 -43537-2 0  9992
2 68011  43.0000 344.1080 0002181 271.1844 251.1709 15.50699719  4779
STARLINK-36936          
1 68012U 26039AC  26080.50001157 -.00120420  00000+0 -20758-2 0  9996
2 68012  43.0000 343.3911 0001669 264.8075 187.2571 15.50614656  4772
STARLINK-36967          
1 68013U 26039AD  26080.50001157 -.00199967  00000+0 -34793-2 0  9993
2 68013  43.0002 344.0346 0001622 260.1171 292.1237 15.50667651  4778
STARLINK-36985          
1 68014U 26039AE  26080.50001157 -.01920735  00000+0 -28804-1 0  9995
2 68014  42.9996 342.9078 0001703 253.3773  33.9900 15.57519020  4771
STARLINK-36335          
1 68015U 26040A   26080.50001157  .00112036  00000+0  74547-3 0  9999
2 68015  97.2840  29.5232 0001789 121.5316 258.1686 15.75087292  4274
STARLINK-36923          
1 68016U 26040B   26080.50001157 -.00170930  00000+0 -11646-2 0  9999
2 68016  97.2854  29.5273 0001595 104.6416 281.0631 15.75258304  4328
STARLINK-36568          
1 68017U 26040C   26080.50001157 -.00223444  00000+0 -15321-2 0  9993
2 68017  97.2853  29.5283 0001307  89.5868 300.1221 15.75257680  4326
STARLINK-36930          
1 68018U 26040D   26080.50001157 -.00148098  00000+0 -10075-2 0  9996
2 68018  97.2850  29.5252 0001601  94.5273 287.1683 15.75230330  4322
STARLINK-36921          
1 68019U 26040E   26080.50001157  .00051378  00000+0  34410-3 0  9999
2 68019  97.2842  29.5390 0001525  70.6414 333.0607 15.75132988  4321
STARLINK-36928          
1 68020U 26040F   26080.50001157 -.00342461  00000+0 -23754-2 0  9997
2 68020  97.2842  29.5338 0001053 101.9334 295.7667 15.75314962  4324
STARLINK-36858          
1 68021U 26040G   26080.55467771  .00054113  00000+0  28136-3 0  9993
2 68021  97.2794  29.7491 0001531 111.2783 248.8649 15.80826224  3239
STARLINK-36916          
1 68022U 26040H   26080.50001157 -.00104008  00000+0 -70415-3 0  9999
2 68022  97.2851  29.5372 0001123  93.1002 316.5855 15.75216668  4321
STARLINK-36871          
1 68023U 26040J   26080.50001157 -.00155576  00000+0 -10593-2 0  9996
2 68023  97.2851  29.5378 0001626  92.7189 318.9764 15.75231340  4326
STARLINK-36891          
1 68024U 26040K   26080.50001157 -.00214766  00000+0 -14715-2 0  9994
2 68024  97.2850  29.5396 0001555  87.7072 328.0052 15.75250015  4324
STARLINK-36378          
1 68025U 26040L   26080.50001157 -.00134936  00000+0 -91580-3 0  9991
2 68025  97.2850  29.5464 0001092  70.5163 353.1985 15.75249452  4279
STARLINK-36884          
1 68026U 26040M   26080.50001157  .00067049  00000+0  44785-3 0  9995
2 68026  97.2850  29.5436 0001342  84.6907 337.0120 15.75139275  4328
STARLINK-36940          
1 68027U 26040N   26080.50001157 -.00278142  00000+0 -19165-2 0  9999
2 68027  97.2855  29.5724 0001288  83.3059  28.4073 15.75293781  4429
STARLINK-36253          
1 68028U 26040P   26080.50001157 -.01970102  00000+0 -24829-1 0  9998
2 68028  97.2857  29.2825 0001920  96.2451  72.4969 15.62852174  4429
